STARLINK-37083          
1 68227U 26053W   26091.88752528  .00237765  00000+0  12035-2 0  9996
2 68227  97.2850 327.3390 0001185  66.4372 293.7020 15.80906536  3692
STARLINK-37050          
1 68228U 26053X   26091.88602200  .00102519  00000+0  52863-3 0  9990
2 68228  97.2854 327.3412 0001010  80.0153 280.1229 15.80860239  3700
STARLINK-37081          
1 68229U 26053Y   26091.91668981 -.00082873  00000+0 -55913-3 0  9994
2 68229  97.2850 327.3524 0001391  82.0465  39.5571 15.75231640  3743
STARLINK-37100          
1 68230U 26053Z   26091.88526841  .00196609  00000+0  10001-2 0  9999
2 68230  97.2850 327.3424 0001332 114.6482 245.4925 15.80904906  3727
STARLINK-37104          
1 68231U 26053AA  26091.88451826  .00227614  00000+0  11535-2 0  9994
2 68231  97.2851 327.3431 0001123  68.0841 292.0547 15.80907719  3729
STARLINK-37027          
1 68232U 26054A   26091.91668981 -.00017218  00000+0 -10837-3 0  9996
2 68232  53.1603 196.4156 0001067  90.1660 330.5955 15.75240242  3644
STARLINK-37132          
1 68233U 26054B   26091.76650165  .00353263  00000+0  17125-2 0  9992
2 68233  53.1595 197.0144 0001508  81.2014 278.9179 15.80981936  2429
STARLINK-37101          
1 68234U 26054C   26091.91668981 -.00052466  00000+0 -33976-3 0  9991
2 68234  53.1597 196.3135 0001353  75.7458  34.6370 15.75268375  3646
STARLINK-36963          
1 68235U 26054D   26091.91668981 -.00022419  00000+0 -14244-3 0  9994
2 68235  53.1601 196.3659 0001025  82.7547   1.8966 15.75243351  3641
STARLINK-37127          
1 68236U 26054E   26091.65708531  .00237027  00000+0  15021-2 0  9996
2 68236  53.1594 197.7610 0000881  69.9916 290.1199 15.75320038  2403
STARLINK-37095          
1 68237U 26054F   26091.71599140  .00205254  00000+0  13066-2 0  9992
2 68237  53.1603 197.4155 0001306  46.3785 313.7344 15.75314609  2414
STARLINK-37097          
1 68238U 26054G   26091.76275152  .00206687  00000+0  10219-2 0  9990
2 68238  53.1592 196.9894 0001424  28.4983 331.6118 15.80957451  2421
