CCSDS_OMM_VERS = 2.0
CREATION_DATE  = 
ORIGINATOR     = 

OBJECT_NAME    = STARLINK-37083
OBJECT_ID      = 2026-053W
CENTER_NAME    = EARTH
REF_FRAME      = TEME
TIME_SYSTEM    = UTC
MEAN_ELEMENT_THEORY = SGP/SGP4

EPOCH          = 2026-04-01T21:18:02.184192
MEAN_MOTION    = 15.80906536
ECCENTRICITY   = .00011851
INCLINATION    = 97.2850
RA_OF_ASC_NODE = 327.3390
ARG_OF_PERICENTER = 66.4372
MEAN_ANOMALY   = 293.7020

EPHEMERIS_TYPE = 0
CLASSIFICATION_TYPE = U
NORAD_CAT_ID   = 68227
ELEMENT_SET_NO = 999
REV_AT_EPOCH   = 369
BSTAR          = .12035311E-2
MEAN_MOTION_DOT = .237765E-2
MEAN_MOTION_DDOT = 0

CCSDS_OMM_VERS = 2.0
CREATION_DATE  = 
ORIGINATOR     = 

OBJECT_NAME    = STARLINK-37050
OBJECT_ID      = 2026-053X
CENTER_NAME    = EARTH
REF_FRAME      = TEME
TIME_SYSTEM    = UTC
MEAN_ELEMENT_THEORY = SGP/SGP4

EPOCH          = 2026-04-01T21:15:52.300800
MEAN_MOTION    = 15.80860239
ECCENTRICITY   = .00010107
INCLINATION    = 97.2854
RA_OF_ASC_NODE = 327.3412
ARG_OF_PERICENTER = 80.0153
MEAN_ANOMALY   = 280.1229

EPHEMERIS_TYPE = 0
CLASSIFICATION_TYPE = U
NORAD_CAT_ID   = 68228
ELEMENT_SET_NO = 999
REV_AT_EPOCH   = 370
BSTAR          = .5286297E-3
MEAN_MOTION_DOT = .102519E-2
MEAN_MOTION_DDOT = 0

CCSDS_OMM_VERS = 2.0
CREATION_DATE  = 
ORIGINATOR     = 

OBJECT_NAME    = STARLINK-37081
OBJECT_ID      = 2026-053Y
CENTER_NAME    = EARTH
REF_FRAME      = TEME
TIME_SYSTEM    = UTC
MEAN_ELEMENT_THEORY = SGP/SGP4

EPOCH          = 2026-04-01T22:00:01.999584
MEAN_MOTION    = 15.75231640
ECCENTRICITY   = .00013915
INCLINATION    = 97.2850
RA_OF_ASC_NODE = 327.3524
ARG_OF_PERICENTER = 82.0465
MEAN_ANOMALY   = 39.5571

EPHEMERIS_TYPE = 0
CLASSIFICATION_TYPE = U
NORAD_CAT_ID   = 68229
ELEMENT_SET_NO = 999
REV_AT_EPOCH   = 374
BSTAR          = -.55912701E-3
MEAN_MOTION_DOT = -.82873E-3
MEAN_MOTION_DDOT = 0

CCSDS_OMM_VERS = 2.0
CREATION_DATE  = 
ORIGINATOR     = 

OBJECT_NAME    = STARLINK-37100
OBJECT_ID      = 2026-053Z
CENTER_NAME    = EARTH
REF_FRAME      = TEME
TIME_SYSTEM    = UTC
MEAN_ELEMENT_THEORY = SGP/SGP4

EPOCH          = 2026-04-01T21:14:47.190624
MEAN_MOTION    = 15.80904906
ECCENTRICITY   = .00013325
INCLINATION    = 97.2850
RA_OF_ASC_NODE = 327.3424
ARG_OF_PERICENTER = 114.6482
MEAN_ANOMALY   = 245.4925

EPHEMERIS_TYPE = 0
CLASSIFICATION_TYPE = U
NORAD_CAT_ID   = 68230
ELEMENT_SET_NO = 999
REV_AT_EPOCH   = 372
BSTAR          = .10001487E-2
MEAN_MOTION_DOT = .196609E-2
MEAN_MOTION_DDOT = 0

CCSDS_OMM_VERS = 2.0
CREATION_DATE  = 
ORIGINATOR     = 

OBJECT_NAME    = STARLINK-37104
OBJECT_ID      = 2026-053AA
CENTER_NAME    = EARTH
REF_FRAME      = TEME
TIME_SYSTEM    = UTC
MEAN_ELEMENT_THEORY = SGP/SGP4

EPOCH          = 2026-04-01T21:13:42.377664
MEAN_MOTION    = 15.80907719
ECCENTRICITY   = .00011239
INCLINATION    = 97.2851
RA_OF_ASC_NODE = 327.3431
ARG_OF_PERICENTER = 68.0841
MEAN_ANOMALY   = 292.0547

EPHEMERIS_TYPE = 0
CLASSIFICATION_TYPE = U
NORAD_CAT_ID   = 68231
ELEMENT_SET_NO = 999
REV_AT_EPOCH   = 372
BSTAR          = .11534693E-2
MEAN_MOTION_DOT = .227614E-2
MEAN_MOTION_DDOT = 0

CCSDS_OMM_VERS = 2.0
CREATION_DATE  = 
ORIGINATOR     = 

OBJECT_NAME    = STARLINK-37027
OBJECT_ID      = 2026-054A
CENTER_NAME    = EARTH
REF_FRAME      = TEME
TIME_SYSTEM    = UTC
MEAN_ELEMENT_THEORY = SGP/SGP4

EPOCH          = 2026-04-01T22:00:01.999584
MEAN_MOTION    = 15.75240242
ECCENTRICITY   = .00010671
INCLINATION    = 53.1603
RA_OF_ASC_NODE = 196.4156
ARG_OF_PERICENTER = 90.1660
MEAN_ANOMALY   = 330.5955

EPHEMERIS_TYPE = 0
CLASSIFICATION_TYPE = U
NORAD_CAT_ID   = 68232
ELEMENT_SET_NO = 999
REV_AT_EPOCH   = 364
BSTAR          = -.10837497E-3
MEAN_MOTION_DOT = -.17218E-3
MEAN_MOTION_DDOT = 0

CCSDS_OMM_VERS = 2.0
CREATION_DATE  = 
ORIGINATOR     = 

OBJECT_NAME    = STARLINK-37132
OBJECT_ID      = 2026-054B
CENTER_NAME    = EARTH
REF_FRAME      = TEME
TIME_SYSTEM    = UTC
MEAN_ELEMENT_THEORY = SGP/SGP4

EPOCH          = 2026-04-01T18:23:45.742560
MEAN_MOTION    = 15.80981936
ECCENTRICITY   = .00015086
INCLINATION    = 53.1595
RA_OF_ASC_NODE = 197.0144
ARG_OF_PERICENTER = 81.2014
MEAN_ANOMALY   = 278.9179

EPHEMERIS_TYPE = 0
CLASSIFICATION_TYPE = U
NORAD_CAT_ID   = 68233
ELEMENT_SET_NO = 999
REV_AT_EPOCH   = 242
BSTAR          = .17125356E-2
MEAN_MOTION_DOT = .353263E-2
MEAN_MOTION_DDOT = 0

CCSDS_OMM_VERS = 2.0
CREATION_DATE  = 
ORIGINATOR     = 

OBJECT_NAME    = STARLINK-37101
OBJECT_ID      = 2026-054C
CENTER_NAME    = EARTH
REF_FRAME      = TEME
TIME_SYSTEM    = UTC
MEAN_ELEMENT_THEORY = SGP/SGP4

EPOCH          = 2026-04-01T22:00:01.999584
MEAN_MOTION    = 15.75268375
ECCENTRICITY   = .00013537
INCLINATION    = 53.1597
RA_OF_ASC_NODE = 196.3135
ARG_OF_PERICENTER = 75.7458
MEAN_ANOMALY   = 34.6370

EPHEMERIS_TYPE = 0
CLASSIFICATION_TYPE = U
NORAD_CAT_ID   = 68234
ELEMENT_SET_NO = 999
REV_AT_EPOCH   = 364
BSTAR          = -.33976053E-3
MEAN_MOTION_DOT = -.52466E-3
MEAN_MOTION_DDOT = 0

CCSDS_OMM_VERS = 2.0
CREATION_DATE  = 
ORIGINATOR     = 

OBJECT_NAME    = STARLINK-36963
OBJECT_ID      = 2026-054D
CENTER_NAME    = EARTH
REF_FRAME      = TEME
TIME_SYSTEM    = UTC
MEAN_ELEMENT_THEORY = SGP/SGP4

EPOCH          = 2026-04-01T22:00:01.999584
MEAN_MOTION    = 15.75243351
ECCENTRICITY   = .00010251
INCLINATION    = 53.1601
RA_OF_ASC_NODE = 196.3659
ARG_OF_PERICENTER = 82.7547
MEAN_ANOMALY   = 1.8966

EPHEMERIS_TYPE = 0
CLASSIFICATION_TYPE = U
NORAD_CAT_ID   = 68235
ELEMENT_SET_NO = 999
REV_AT_EPOCH   = 364
BSTAR          = -.14243897E-3
MEAN_MOTION_DOT = -.22419E-3
MEAN_MOTION_DDOT = 0

CCSDS_OMM_VERS = 2.0
CREATION_DATE  = 
ORIGINATOR     = 

OBJECT_NAME    = STARLINK-37127
OBJECT_ID      = 2026-054E
CENTER_NAME    = EARTH
REF_FRAME      = TEME
TIME_SYSTEM    = UTC
MEAN_ELEMENT_THEORY = SGP/SGP4

EPOCH          = 2026-04-01T15:46:12.170784
MEAN_MOTION    = 15.75320038
ECCENTRICITY   = .0000881
INCLINATION    = 53.1594
RA_OF_ASC_NODE = 197.7610
ARG_OF_PERICENTER = 69.9916
MEAN_ANOMALY   = 290.1199

EPHEMERIS_TYPE = 0
CLASSIFICATION_TYPE = U
NORAD_CAT_ID   = 68236
ELEMENT_SET_NO = 999
REV_AT_EPOCH   = 240
BSTAR          = .15021457E-2
MEAN_MOTION_DOT = .237027E-2
MEAN_MOTION_DDOT = 0

CCSDS_OMM_VERS = 2.0
CREATION_DATE  = 
ORIGINATOR     = 

OBJECT_NAME    = STARLINK-37095
OBJECT_ID      = 2026-054F
CENTER_NAME    = EARTH
REF_FRAME      = TEME
TIME_SYSTEM    = UTC
MEAN_ELEMENT_THEORY = SGP/SGP4

EPOCH          = 2026-04-01T17:11:01.656960
MEAN_MOTION    = 15.75314609
ECCENTRICITY   = .00013068
INCLINATION    = 53.1603
RA_OF_ASC_NODE = 197.4155
ARG_OF_PERICENTER = 46.3785
MEAN_ANOMALY   = 313.7344

EPHEMERIS_TYPE = 0
CLASSIFICATION_TYPE = U
NORAD_CAT_ID   = 68237
ELEMENT_SET_NO = 999
REV_AT_EPOCH   = 241
BSTAR          = .13065882E-2
MEAN_MOTION_DOT = .205254E-2
MEAN_MOTION_DDOT = 0

CCSDS_OMM_VERS = 2.0
CREATION_DATE  = 
ORIGINATOR     = 

OBJECT_NAME    = STARLINK-37097
OBJECT_ID      = 2026-054G
CENTER_NAME    = EARTH
REF_FRAME      = TEME
TIME_SYSTEM    = UTC
MEAN_ELEMENT_THEORY = SGP/SGP4

EPOCH          = 2026-04-01T18:18:21.731328
MEAN_MOTION    = 15.80957451
ECCENTRICITY   = .00014247
INCLINATION    = 53.1592
RA_OF_ASC_NODE = 196.9894
ARG_OF_PERICENTER = 28.4983
MEAN_ANOMALY   = 331.6118

EPHEMERIS_TYPE = 0
CLASSIFICATION_TYPE = U
NORAD_CAT_ID   = 68238
ELEMENT_SET_NO = 999
REV_AT_EPOCH   = 242
BSTAR          = .1021864E-2
MEAN_MOTION_DOT = .206687E-2
MEAN_MOTION_DDOT = 0

